CUTE-1 (CO-55)          
1 27844U 03031E   26131.92940550  .00000190  00000+0  10139-3 0  9995
2 27844  98.6747 140.9437 0008369 293.9469  66.0833 14.24312642186510
CUBESAT XI-IV (CO-57)   
1 27848U 03031J   26131.97000580  .00000168  00000+0  92943-4 0  9993
2 27848  98.6780 140.7254 0008525 314.7788  45.2696 14.23600890186224
CUBESAT XI-V            
1 28895U 05043F   26132.18593479  .00000845  00000+0  14114-3 0  9994
2 28895  98.2945 287.0624 0013191 323.9140  36.1175 14.72534334 96450
CUTE-1.7+APD II (CO-65) 
1 32785U 08021C   26132.11584565  .00002661  00000+0  17196-3 0  9996
2 32785  97.8259 112.7992 0009996 142.6356 217.5569 15.09101636979752
CANX-2                  
1 32790U 08021H   26132.19737182  .00002094  00000+0  15056-3 0  9998
2 32790  97.8627 111.2888 0011092 155.8166 204.3583 15.05356948979394
SEEDS II (CO-66)        
1 32791U 08021J   26131.95242801  .00011536  00000+0  38169-3 0  9992
2 32791  97.7527 128.1593 0005040  86.4722 273.7094 15.31496475981744
SWISSCUBE               
1 35932U 09051B   26131.97492392  .00000596  00000+0  12760-3 0  9993
2 35932  98.4059  39.2308 0006277 337.1679  22.9242 14.62409240883868
BEESAT-1                
1 35933U 09051C   26132.17103001  .00000506  00000+0  11158-3 0  9994
2 35933  98.3987  39.1406 0005105 354.7660   5.3486 14.61659503883920
ITUPSAT1                
1 35935U 09051E   26130.69163038  .00000508  00000+0  11516-3 0  9997
2 35935  98.4072  36.8697 0007623   5.6146 354.5137 14.60382828883263
TISAT 1                 
1 36799U 10035E   26132.10390083  .00012873  00000+0  44152-3 0  9990
2 36799  98.0692  75.4988 0003612  54.6432 305.5143 15.30319327862187
AEROCUBE 4.5A           
1 38767U 12048K   26132.19606544  .00116346  00000+0  67668-3 0  9991
2 38767  64.6291 156.5529 0019301 217.0849 142.8972 15.77640627366956
STRAND-1                
1 39090U 13009E   26132.06128422  .00000183  00000+0  75969-4 0  9994
2 39090  98.3916 313.1866 0008253 347.3335  12.7643 14.37141382691871
BRITE-AUSTRIA           
1 39091U 13009F   26132.05865639  .00000111  00000+0  52429-4 0  9999
2 39091  98.3988 312.3904 0009999 355.1901   4.9188 14.36527301691863
NEE-01 PEGASO           
1 39151U 13018B   26131.88726023  .00001820  00000+0  17871-3 0  9998
2 39151  98.1175 274.8535 0011183 285.1037  74.8945 14.93480823705287
POPACS 2                
1 39269U 13055E   26131.59604559  .00009204  00000+0  15800-3 0  9990
2 39269  80.9931 186.0535 0419365 311.5041  45.0875 14.90383682657766
POPACS 3                
1 39270U 13055F   26132.10086556  .00011526  00000+0  27559-3 0  9995
2 39270  81.0002 268.2855 0554937 179.7327 180.4287 14.55228363633303
ZACUBE-1 (TSHEPISOSAT)  
1 39417U 13066B   26132.14343432  .00002957  00000+0  23294-3 0  9993
2 39417  97.8118  94.2849 0041984  14.4700 345.7714 15.00904333675320
WNISAT-1                
1 39423U 13066H   26131.90783370  .00000287  00000+0  61363-4 0  9996
2 39423  97.7158 283.6487 0162771 346.6812  13.0116 14.58016999661447
TRITON-1                
1 39427U 13066M   26132.23224098  .00001916  00000+0  23446-3 0  9993
2 39427  97.8260  42.8581 0090248 352.6231   7.3647 14.81545165668762
GOMX-1                  
1 39430U 13066Q   26132.16225862  .00001296  00000+0  20125-3 0  9991
2 39430  97.6513 334.8966 0128341 192.5913 167.2080 14.69315885664628
CUBEBUG-2 (LO-74)       
1 39440U 13066AA  26132.08779615  .00001920  00000+0  18206-3 0  9994
2 39440  97.8889  80.9276 0058806 145.6360 214.8685 14.93488953671603
NEE-02 KRYSAOR          
1 39441U 13066AB  26132.06276985  .00000953  00000+0  11006-3 0  9991
2 39441  97.8881  71.5435 0065988 186.8636 173.1683 14.86481379670837
FUNCUBE-1 (AO-73)       
1 39444U 13066AE  26132.18826206  .00005149  00000+0  32518-3 0  9997
2 39444  97.8259 102.9005 0035510 329.0568  30.8567 15.09014992674231
UWE-3                   
1 39446U 13066AG  26131.85056797  .00001943  00000+0  17105-3 0  9995
2 39446  97.8679  87.6953 0050950  80.9232 279.7749 14.96716038672145
BRITE-CA1 (TORONTO)     
1 40020U 14033L   26132.09469909  .00000439  00000+0  73570-4 0  9998
2 40020  97.9687 261.6998 0079347  33.3825 327.2349 14.72626516636903
DUCHIFAT-1              
1 40021U 14033M   26132.12536242  .00050870  00000+0  67127-3 0  9992
2 40021  98.0509 186.4226 0005801 189.1310 170.9839 15.58226206650124
NANOSATC-BR1            
1 40024U 14033Q   26132.05847398  .00009914  00000+0  34113-3 0  9996
2 40024  98.0758 161.2762 0001990 331.9616  28.1515 15.30297181648458
QB50P1                  
1 40025U 14033R   26131.96036255  .00005531  00000+0  27801-3 0  9995
2 40025  98.0984 140.5824 0008473   2.3989 357.7282 15.17689449647531
QB50P2                  
1 40032U 14033Y   26131.96962588  .00003817  00000+0  21023-3 0  9995
2 40032  98.0757 126.6114 0005895 307.2772  52.7920 15.14687780647181
PERSEUS-M2              
1 40037U 14033AD  26132.13213494  .00001114  00000+0  10626-3 0  9990
2 40037  97.9937  81.9467 0013146  62.3537 297.9016 14.95394102645395
